{
  "type": "FeatureCollection",
  "features": [
    {
      "type": "Feature",
      "properties": {
        "norad_id": 30663,
        "name": "FENGYUN 1C DEB",
        "group": "fengyun-1c-debris",
        "lat": -7.932816384050013,
        "lon": 81.23109215063941,
        "alt_km": 833.5116381217094,
        "timestamp": "2025-12-11T10:53:16.164949+00:00",
        "meta_object_name": "FENGYUN 1C DEB",
        "meta_object_id": "1999-025APV",
        "meta_epoch": "2025-12-10T17:39:32.330304",
        "meta_mean_motion": 13.23119607,
        "meta_eccentricity": 0.06478185,
        "meta_inclination": 99.3025,
        "meta_ra_of_asc_node": 261.8948,
        "meta_arg_of_pericenter": 141.47,
        "meta_mean_anomaly": 223.4554,
        "meta_ephemeris_type": 0,
        "meta_classification_type": "U",
        "meta_norad_cat_id": 30663,
        "meta_element_set_no": 999,
        "meta_rev_at_epoch": 89021,
        "meta_bstar": 0.0019128295,
        "meta_mean_motion_dot": 2.46e-05,
        "meta_mean_motion_ddot": 0,
        "tle_line1": "1 30663U 99025APV 25344.73579086  .00002460  00000+0  19128-2 0  9990",
        "tle_line2": "2 30663  99.3025 261.8948 0647818 141.4700 223.4554 13.23119607890215"
      },
      "geometry": {
        "type": "Point",
        "coordinates": [
          81.23109215063941,
          -7.932816384050013
        ]
      }
    },
    {
      "type": "Feature",
      "properties": {
        "norad_id": 30665,
        "name": "FENGYUN 1C DEB",
        "group": "fengyun-1c-debris",
        "lat": -24.226268931148446,
        "lon": -38.79473970320847,
        "alt_km": 887.6448233570663,
        "timestamp": "2025-12-11T10:53:16.164960+00:00",
        "meta_object_name": "FENGYUN 1C DEB",
        "meta_object_id": "1999-025APX",
        "meta_epoch": "2025-12-10T21:32:09.229920",
        "meta_mean_motion": 14.12324162,
        "meta_eccentricity": 0.0067638,
        "meta_inclination": 99.2094,
        "meta_ra_of_asc_node": 316.4475,
        "meta_arg_of_pericenter": 207.7932,
        "meta_mean_anomaly": 180.1188,
        "meta_ephemeris_type": 0,
        "meta_classification_type": "U",
        "meta_norad_cat_id": 30665,
        "meta_element_set_no": 999,
        "meta_rev_at_epoch": 95944,
        "meta_bstar": 0.0021964,
        "meta_mean_motion_dot": 4.088e-05,
        "meta_mean_motion_ddot": 0,
        "tle_line1": "1 30665U 99025APX 25344.89732905  .00004088  00000+0  21964-2 0  9999",
        "tle_line2": "2 30665  99.2094 316.4475 0067638 207.7932 180.1188 14.12324162959449"
      },
      "geometry": {
        "type": "Point",
        "coordinates": [
          -38.79473970320847,
          -24.226268931148446
        ]
      }
    },
    {
      "type": "Feature",
      "properties": {
        "norad_id": 30666,
        "name": "FENGYUN 1C DEB",
        "group": "fengyun-1c-debris",
        "lat": -11.06929932647762,
        "lon": 147.37001143408614,
        "alt_km": 856.8838634109825,
        "timestamp": "2025-12-11T10:53:16.164970+00:00",
        "meta_object_name": "FENGYUN 1C DEB",
        "meta_object_id": "1999-025APY",
        "meta_epoch": "2025-12-11T04:56:41.887104",
        "meta_mean_motion": 14.02553738,
        "meta_eccentricity": 0.0061103,
        "meta_inclination": 98.8223,
        "meta_ra_of_asc_node": 328.8713,
        "meta_arg_of_pericenter": 148.2141,
        "meta_mean_anomaly": 232.8063,
        "meta_ephemeris_type": 0,
        "meta_classification_type": "U",
        "meta_norad_cat_id": 30666,
        "meta_element_set_no": 999,
        "meta_rev_at_epoch": 96089,
        "meta_bstar": 0.00026326,
        "meta_mean_motion_dot": 3.7e-06,
        "meta_mean_motion_ddot": 0,
        "tle_line1": "1 30666U 99025APY 25345.20604036  .00000370  00000+0  26326-3 0  9997",
        "tle_line2": "2 30666  98.8223 328.8713 0061103 148.2141 232.8063 14.02553738960893"
      },
      "geometry": {
        "type": "Point",
        "coordinates": [
          147.37001143408614,
          -11.06929932647762
        ]
      }
    },
    {
      "type": "Feature",
      "properties": {
        "norad_id": 30668,
        "name": "FENGYUN 1C DEB",
        "group": "fengyun-1c-debris",
        "lat": 65.06178844476685,
        "lon": 38.2545925402247,
        "alt_km": 902.1988205172984,
        "timestamp": "2025-12-11T10:53:16.164980+00:00",
        "meta_object_name": "FENGYUN 1C DEB",
        "meta_object_id": "1999-025AQA",
        "meta_epoch": "2025-12-10T04:06:10.389312",
        "meta_mean_motion": 14.12300948,
        "meta_eccentricity": 0.00791194,
        "meta_inclination": 99.1293,
        "meta_ra_of_asc_node": 57.1798,
        "meta_arg_of_pericenter": 253.3601,
        "meta_mean_anomaly": 135.2641,
        "meta_ephemeris_type": 0,
        "meta_classification_type": "U",
        "meta_norad_cat_id": 30668,
        "meta_element_set_no": 999,
        "meta_rev_at_epoch": 96019,
        "meta_bstar": 0.0024476041,
        "meta_mean_motion_dot": 4.596e-05,
        "meta_mean_motion_ddot": 0,
        "tle_line1": "1 30668U 99025AQA 25344.17095358  .00004596  00000+0  24476-2 0  9992",
        "tle_line2": "2 30668  99.1293  57.1798 0079119 253.3601 135.2641 14.12300948960191"
      },
      "geometry": {
        "type": "Point",
        "coordinates": [
          38.2545925402247,
          65.06178844476685
        ]
      }
    },
    {
      "type": "Feature",
      "properties": {
        "norad_id": 30669,
        "name": "FENGYUN 1C DEB",
        "group": "fengyun-1c-debris",
        "lat": 12.868161613096758,
        "lon": 104.17833472026228,
        "alt_km": 802.3222683247113,
        "timestamp": "2025-12-11T10:53:16.164992+00:00",
        "meta_object_name": "FENGYUN 1C DEB",
        "meta_object_id": "1999-025AQB",
        "meta_epoch": "2025-12-09T09:03:08.025408",
        "meta_mean_motion": 14.02706472,
        "meta_eccentricity": 0.0117622,
        "meta_inclination": 98.6338,
        "meta_ra_of_asc_node": 280.2201,
        "meta_arg_of_pericenter": 186.1119,
        "meta_mean_anomaly": 301.1451,
        "meta_ephemeris_type": 0,
        "meta_classification_type": "U",
        "meta_norad_cat_id": 30669,
        "meta_element_set_no": 999,
        "meta_rev_at_epoch": 95406,
        "meta_bstar": 0.0017012748,
        "meta_mean_motion_dot": 2.752e-05,
        "meta_mean_motion_ddot": 0,
        "tle_line1": "1 30669U 99025AQB 25343.37717622  .00002752  00000+0  17013-2 0  9990",
        "tle_line2": "2 30669  98.6338 280.2201 0117622 186.1119 301.1451 14.02706472954066"
      },
      "geometry": {
        "type": "Point",
        "coordinates": [
          104.17833472026228,
          12.868161613096758
        ]
      }
    },
    {
      "type": "Feature",
      "properties": {
        "norad_id": 30670,
        "name": "FENGYUN 1C DEB",
        "group": "fengyun-1c-debris",
        "lat": 29.432250282290134,
        "lon": 24.949323684310848,
        "alt_km": 816.988357438453,
        "timestamp": "2025-12-11T10:53:16.165002+00:00",
        "meta_object_name": "FENGYUN 1C DEB",
        "meta_object_id": "1999-025AQC",
        "meta_epoch": "2025-12-10T19:45:42.198048",
        "meta_mean_motion": 14.15816111,
        "meta_eccentricity": 0.0039945,
        "meta_inclination": 98.7112,
        "meta_ra_of_asc_node": 29.2958,
        "meta_arg_of_pericenter": 74.9968,
        "meta_mean_anomaly": 344.6597,
        "meta_ephemeris_type": 0,
        "meta_classification_type": "U",
        "meta_norad_cat_id": 30670,
        "meta_element_set_no": 999,
        "meta_rev_at_epoch": 97125,
        "meta_bstar": 0.00013289,
        "meta_mean_motion_dot": 2.2e-06,
        "meta_mean_motion_ddot": 0,
        "tle_line1": "1 30670U 99025AQC 25344.82340507  .00000220  00000+0  13289-3 0  9997",
        "tle_line2": "2 30670  98.7112  29.2958 0039945  74.9968 344.6597 14.15816111971255"
      },
      "geometry": {
        "type": "Point",
        "coordinates": [
          24.949323684310848,
          29.432250282290134
        ]
      }
    },
    {
      "type": "Feature",
      "properties": {
        "norad_id": 30671,
        "name": "FENGYUN 1C DEB",
        "group": "fengyun-1c-debris",
        "lat": 80.68348140877711,
        "lon": -33.3734307563488,
        "alt_km": 844.9889150656427,
        "timestamp": "2025-12-11T10:53:16.165012+00:00",
        "meta_object_name": "FENGYUN 1C DEB",
        "meta_object_id": "1999-025AQD",
        "meta_epoch": "2025-12-11T03:50:51.324000",
        "meta_mean_motion": 13.95452124,
        "meta_eccentricity": 0.0126109,
        "meta_inclination": 99.2526,
        "meta_ra_of_asc_node": 49.8649,
        "meta_arg_of_pericenter": 37.6174,
        "meta_mean_anomaly": 17.3567,
        "meta_ephemeris_type": 0,
        "meta_classification_type": "U",
        "meta_norad_cat_id": 30671,
        "meta_element_set_no": 999,
        "meta_rev_at_epoch": 95173,
        "meta_bstar": 0.001489,
        "meta_mean_motion_dot": 2.115e-05,
        "meta_mean_motion_ddot": 0,
        "tle_line1": "1 30671U 99025AQD 25345.16031625  .00002115  00000+0  14890-2 0  9997",
        "tle_line2": "2 30671  99.2526  49.8649 0126109  37.6174  17.3567 13.95452124951739"
      },
      "geometry": {
        "type": "Point",
        "coordinates": [
          -33.3734307563488,
          80.68348140877711
        ]
      }
    }
  ]
}